start=new Date('2023-05-01T00:00:00.000Z').valueOf();
sats=[{"REF_FRAME":"TEME","DECAY_DATE":null,"MEAN_MOTION_DOT":"-0.00024073","MEAN_ELEMENT_THEORY":"SGP4","FILE":"3897505","RA_OF_ASC_NODE":"334.5065","MEAN_MOTION":"15.48801614","TLE_LINE2":"2 55997  43.0008 334.5065 0002450 248.8041 111.2557 15.48801614  6136","REV_AT_EPOCH":"613","TIME_SYSTEM":"UTC","CENTER_NAME":"EARTH","CLASSIFICATION_TYPE":"U","TLE_LINE1":"1 55997U 23042M   23120.61469060 -.00024073  00000-0 -43220-3 0  9998","LAUNCH_DATE":"2023-03-24","NORAD_CAT_ID":"55997","OBJECT_TYPE":"PAYLOAD","GP_ID":"230981444","MEAN_MOTION_DDOT":"0.0000000000000","APOAPSIS":"421.898","OBJECT_ID":"2023-042M","BSTAR":"-0.00043220000000","EPOCH":"2023-04-30T14:45:09.267840","ELEMENT_SET_NO":"999","ECCENTRICITY":"0.00024500","SEMIMAJOR_AXIS":"6798.368","COUNTRY_CODE":"US","EPHEMERIS_TYPE":"0","PERIAPSIS":"418.567","SITE":"AFETR","OBJECT_NAME":"STARLINK-5904","ARG_OF_PERICENTER":"248.8041","RCS_SIZE":"LARGE","MEAN_ANOMALY":"111.2557","INCLINATION":"43.0008","PERIOD":"92.975"},{"RCS_SIZE":"LARGE","PERIOD":"92.969","INCLINATION":"43.0042","MEAN_ANOMALY":"87.6509","ARG_OF_PERICENTER":"272.4089","OBJECT_NAME":"STARLINK-5902","SITE":"AFETR","PERIAPSIS":"418.382","COUNTRY_CODE":"US","EPHEMERIS_TYPE":"0","ECCENTRICITY":"0.00022880","ELEMENT_SET_NO":"999","EPOCH":"2023-04-30T00:48:27.822240","SEMIMAJOR_AXIS":"6798.072","BSTAR":"-0.00000006497600","GP_ID":"230979672","OBJECT_TYPE":"PAYLOAD","OBJECT_ID":"2023-042N","MEAN_MOTION_DDOT":"0.0000000000000","APOAPSIS":"421.493","TLE_LINE1":"1 55998U 23042N   23120.03365535 -.00000339  00000-0 -64976-7 0  9991","CLASSIFICATION_TYPE":"U","LAUNCH_DATE":"2023-03-24","NORAD_CAT_ID":"55998","CENTER_NAME":"EARTH","TIME_SYSTEM":"UTC","RA_OF_ASC_NODE":"337.8873","FILE":"3897442","TLE_LINE2":"2 55998  43.0042 337.8873 0002288 272.4089  87.6509 15.48902555  5703","REV_AT_EPOCH":"570","MEAN_MOTION":"15.48902555","MEAN_MOTION_DOT":"-0.00000339","DECAY_DATE":null,"MEAN_ELEMENT_THEORY":"SGP4","REF_FRAME":"TEME"},{"ARG_OF_PERICENTER":"205.0717","OBJECT_NAME":"STARLINK-5901","PERIOD":"92.971","INCLINATION":"43.0003","MEAN_ANOMALY":"155.0074","RCS_SIZE":"LARGE","PERIAPSIS":"419.084","SITE":"AFETR","EPHEMERIS_TYPE":"0","COUNTRY_CODE":"US","BSTAR":"-0.00013201000000","SEMIMAJOR_AXIS":"6798.182","ECCENTRICITY":"0.00014160","ELEMENT_SET_NO":"999","EPOCH":"2023-04-30T14:44:53.552544","NORAD_CAT_ID":"55999","TLE_LINE1":"1 55999U 23042P   23120.61450871 -.00007616  00000-0 -13201-3 0  9990","LAUNCH_DATE":"2023-03-24","CLASSIFICATION_TYPE":"U","OBJECT_ID":"2023-042P","APOAPSIS":"421.009","MEAN_MOTION_DDOT":"0.0000000000000","GP_ID":"230981490","OBJECT_TYPE":"PAYLOAD","CENTER_NAME":"EARTH","TIME_SYSTEM":"UTC","MEAN_ELEMENT_THEORY":"SGP4","MEAN_MOTION_DOT":"-0.00007616","DECAY_DATE":null,"TLE_LINE2":"2 55999  43.0003 334.5074 0001416 205.0717 155.0074 15.48865107  6136","REV_AT_EPOCH":"613","MEAN_MOTION":"15.48865107","RA_OF_ASC_NODE":"334.5074","FILE":"3897511","REF_FRAME":"TEME"},{"GP_ID":"230978671","OBJECT_TYPE":"PAYLOAD","OBJECT_ID":"2023-042Q","MEAN_MOTION_DDOT":"0.0000000000000","APOAPSIS":"421.053","TLE_LINE1":"1 56000U 23042Q   23119.77509615  .00002441  00000-0  50178-4 0  9994","LAUNCH_DATE":"2023-03-24","CLASSIFICATION_TYPE":"U","NORAD_CAT_ID":"56000","TIME_SYSTEM":"UTC","CENTER_NAME":"EARTH","RA_OF_ASC_NODE":"339.3900","FILE":"3897442","REV_AT_EPOCH":"566","TLE_LINE2":"2 56000  43.0022 339.3900 0001660 275.7410  84.3260 15.48906958  5665","MEAN_MOTION":"15.48906958","MEAN_MOTION_DOT":"0.00002441","DECAY_DATE":null,"MEAN_ELEMENT_THEORY":"SGP4","REF_FRAME":"TEME","RCS_SIZE":"LARGE","PERIOD":"92.969","INCLINATION":"43.0022","MEAN_ANOMALY":"84.3260","ARG_OF_PERICENTER":"275.7410","OBJECT_NAME":"STARLINK-5910","SITE":"AFETR","PERIAPSIS":"418.796","COUNTRY_CODE":"US","EPHEMERIS_TYPE":"0","ECCENTRICITY":"0.00016600","EPOCH":"2023-04-29T18:36:08.307360","ELEMENT_SET_NO":"999","SEMIMAJOR_AXIS":"6798.059","BSTAR":"0.00005017800000"},{"BSTAR":"0.00006183100000","ECCENTRICITY":"0.00017980","EPOCH":"2023-04-30T00:48:13.660416","ELEMENT_SET_NO":"999","SEMIMAJOR_AXIS":"6798.033","COUNTRY_CODE":"US","EPHEMERIS_TYPE":"0","PERIAPSIS":"418.676","SITE":"AFETR","ARG_OF_PERICENTER":"258.9956","OBJECT_NAME":"STARLINK-5944","RCS_SIZE":"LARGE","INCLINATION":"43.0020","PERIOD":"92.968","MEAN_ANOMALY":"101.0702","REF_FRAME":"TEME","MEAN_MOTION_DOT":"0.00003086","DECAY_DATE":null,"MEAN_ELEMENT_THEORY":"SGP4","RA_OF_ASC_NODE":"337.8858","FILE":"3897442","TLE_LINE2":"2 56001  43.0020 337.8858 0001798 258.9956 101.0702 15.48915963  5708","REV_AT_EPOCH":"570","MEAN_MOTION":"15.48915963","CENTER_NAME":"EARTH","TIME_SYSTEM":"UTC","CLASSIFICATION_TYPE":"U","TLE_LINE1":"1 56001U 23042R   23120.03349144  .00003086  00000-0  61831-4 0  9999","LAUNCH_DATE":"2023-03-24","NORAD_CAT_ID":"56001","GP_ID":"230978921","OBJECT_TYPE":"PAYLOAD","OBJECT_ID":"2023-042R","MEAN_MOTION_DDOT":"0.0000000000000","APOAPSIS":"421.120"},{"OBJECT_NAME":"STARLINK-5799","ARG_OF_PERICENTER":"289.9384","RCS_SIZE":"LARGE","MEAN_ANOMALY":"70.1267","INCLINATION":"43.0021","PERIOD":"92.968","PERIAPSIS":"418.594","SITE":"AFETR","COUNTRY_CODE":"US","EPHEMERIS_TYPE":"0","BSTAR":"0.00000749640000","EPOCH":"2023-04-29T18:36:21.422016","ELEMENT_SET_NO":"999","ECCENTRICITY":"0.00019360","SEMIMAJOR_AXIS":"6798.045","TLE_LINE1":"1 56002U 23042S   23119.77524794  .00000080  00000-0  74964-5 0  9998","LAUNCH_DATE":"2023-03-24","CLASSIFICATION_TYPE":"U","NORAD_CAT_ID":"56002","OBJECT_TYPE":"PAYLOAD","GP_ID":"230980173","APOAPSIS":"421.226","MEAN_MOTION_DDOT":"0.0000000000000","OBJECT_ID":"2023-042S","CENTER_NAME":"EARTH","TIME_SYSTEM":"UTC","DECAY_DATE":null,"MEAN_MOTION_DOT":"0.00000080","MEAN_ELEMENT_THEORY":"SGP4","FILE":"3897442","RA_OF_ASC_NODE":"339.3922","MEAN_MOTION":"15.48911858","TLE_LINE2":"2 56002  43.0021 339.3922 0001936 289.9384  70.1267 15.48911858  5668","REV_AT_EPOCH":"566","REF_FRAME":"TEME"},{"RCS_SIZE":"LARGE","PERIOD":"92.969","INCLINATION":"43.0035","MEAN_ANOMALY":"80.9866","ARG_OF_PERICENTER":"279.0808","OBJECT_NAME":"STARLINK-5789","SITE":"AFETR","PERIAPSIS":"418.807","COUNTRY_CODE":"US","EPHEMERIS_TYPE":"0","ECCENTRICITY":"0.00016410","ELEMENT_SET_NO":"999","EPOCH":"2023-04-29T18:37:14.854368","SEMIMAJOR_AXIS":"6798.058","BSTAR":"0.00001988400000","GP_ID":"230979923","OBJECT_TYPE":"PAYLOAD","OBJECT_ID":"2023-042T","APOAPSIS":"421.039","MEAN_MOTION_DDOT":"0.0000000000000","TLE_LINE1":"1 56003U 23042T   23119.77586637  .00000765  00000-0  19884-4 0  9992","CLASSIFICATION_TYPE":"U","LAUNCH_DATE":"2023-03-24","NORAD_CAT_ID":"56003","CENTER_NAME":"EARTH","TIME_SYSTEM":"UTC","RA_OF_ASC_NODE":"339.3947","FILE":"3897442","REV_AT_EPOCH":"566","TLE_LINE2":"2 56003  43.0035 339.3947 0001641 279.0808  80.9866 15.48907421  5660","MEAN_MOTION":"15.48907421","MEAN_MOTION_DOT":"0.00000765","DECAY_DATE":null,"MEAN_ELEMENT_THEORY":"SGP4","REF_FRAME":"TEME"},{"ECCENTRICITY":"0.00018760","EPOCH":"2023-04-29T18:35:54.753792","ELEMENT_SET_NO":"999","SEMIMAJOR_AXIS":"6798.049","BSTAR":"-0.00001565400000","COUNTRY_CODE":"US","EPHEMERIS_TYPE":"0","SITE":"AFETR","PERIAPSIS":"418.639","RCS_SIZE":"LARGE","INCLINATION":"43.0023","PERIOD":"92.969","MEAN_ANOMALY":"76.2671","ARG_OF_PERICENTER":"283.7980","OBJECT_NAME":"STARLINK-5787","REF_FRAME":"TEME","RA_OF_ASC_NODE":"339.3898","FILE":"3897442","REV_AT_EPOCH":"566","TLE_LINE2":"2 56004  43.0023 339.3898 0001876 283.7980  76.2671 15.48910469  5664","MEAN_MOTION":"15.48910469","MEAN_MOTION_DOT":"-0.00001201","DECAY_DATE":null,"MEAN_ELEMENT_THEORY":"SGP4","TIME_SYSTEM":"UTC","CENTER_NAME":"EARTH","GP_ID":"230979172","OBJECT_TYPE":"PAYLOAD","OBJECT_ID":"2023-042U","APOAPSIS":"421.189","MEAN_MOTION_DDOT":"0.0000000000000","TLE_LINE1":"1 56004U 23042U   23119.77493928 -.00001201  00000-0 -15654-4 0  9992","LAUNCH_DATE":"2023-03-24","CLASSIFICATION_TYPE":"U","NORAD_CAT_ID":"56004"},{"TIME_SYSTEM":"UTC","CENTER_NAME":"EARTH","LAUNCH_DATE":"2023-03-24","TLE_LINE1":"1 56005U 23042V   23118.67916948 -.00004463  00000-0 -74685-4 0  9995","CLASSIFICATION_TYPE":"U","NORAD_CAT_ID":"56005","GP_ID":"230932646","OBJECT_TYPE":"PAYLOAD","OBJECT_ID":"2023-042V","APOAPSIS":"420.987","MEAN_MOTION_DDOT":"0.0000000000000","REF_FRAME":"TEME","MEAN_MOTION_DOT":"-0.00004463","DECAY_DATE":null,"MEAN_ELEMENT_THEORY":"SGP4","RA_OF_ASC_NODE":"345.7848","FILE":"3896517","TLE_LINE2":"2 56005  43.0029 345.7848 0001593 288.3337  71.7349 15.48913847  5496","REV_AT_EPOCH":"549","MEAN_MOTION":"15.48913847","PERIAPSIS":"418.821","SITE":"AFETR","ARG_OF_PERICENTER":"288.3337","OBJECT_NAME":"STARLINK-5801","RCS_SIZE":"LARGE","INCLINATION":"43.0029","PERIOD":"92.968","MEAN_ANOMALY":"71.7349","BSTAR":"-0.00007468500000","ECCENTRICITY":"0.00015930","EPOCH":"2023-04-28T16:18:00.243072","ELEMENT_SET_NO":"999","SEMIMAJOR_AXIS":"6798.039","COUNTRY_CODE":"US","EPHEMERIS_TYPE":"0"},{"COUNTRY_CODE":"US","EPHEMERIS_TYPE":"0","ECCENTRICITY":"0.00013190","EPOCH":"2023-04-29T18:35:15.290592","ELEMENT_SET_NO":"999","SEMIMAJOR_AXIS":"6798.060","BSTAR":"0.00007743000000","RCS_SIZE":"LARGE","INCLINATION":"43.0006","PERIOD":"92.969","MEAN_ANOMALY":"67.0568","ARG_OF_PERICENTER":"293.0153","OBJECT_NAME":"STARLINK-5794","SITE":"AFETR","PERIAPSIS":"419.028","RA_OF_ASC_NODE":"339.3870","FILE":"3897442","TLE_LINE2":"2 56006  43.0006 339.3870 0001319 293.0153  67.0568 15.48906773  5661","REV_AT_EPOCH":"566","MEAN_MOTION":"15.48906773","MEAN_MOTION_DOT":"0.00003949","DECAY_DATE":null,"MEAN_ELEMENT_THEORY":"SGP4","REF_FRAME":"TEME","GP_ID":"230979673","OBJECT_TYPE":"PAYLOAD","OBJECT_ID":"2023-042W","APOAPSIS":"420.822","MEAN_MOTION_DDOT":"0.0000000000000","LAUNCH_DATE":"2023-03-24","TLE_LINE1":"1 56006U 23042W   23119.77448253  .00003949  00000-0  77430-4 0  9994","CLASSIFICATION_TYPE":"U","NORAD_CAT_ID":"56006","TIME_SYSTEM":"UTC","CENTER_NAME":"EARTH"}];
